1 37548U 97051XH  26114.35938007  .00001903  00000+0  46025-3 0  9990
2 37548  86.3532 345.6205 0026470 105.7034 254.7095 14.52391145674565
